{
  "fetched_at": "2026-06-07T02:29:40.931120+00:00",
  "satellites": {
    "57166": {
      "name": "Meteor M2-3",
      "tle_line1": "1 57166U 23091A   26157.84017260  .00000006  00000+0  21543-4 0  9993",
      "tle_line2": "2 57166  98.6086 213.0298 0003753 183.3761 176.7394 14.24045981153044"
    },
    "59051": {
      "name": "Meteor M2-4",
      "tle_line1": "1 59051U 24039A   26157.84314958  .00000025  00000+0  31106-4 0  9992",
      "tle_line2": "2 59051  98.7006 117.2715 0006676 190.9065 169.1969 14.22428504117799"
    },
    "38771": {
      "name": "MetOp-B",
      "tle_line1": "1 38771U 12049A   26157.84209095  .00000103  00000+0  66761-4 0  9993",
      "tle_line2": "2 38771  98.6508 209.5472 0002823  43.4880 316.6519 14.21429911711795"
    },
    "43689": {
      "name": "MetOp-C",
      "tle_line1": "1 43689U 18087A   26157.79147670  .00000109  00000+0  69515-4 0  9995",
      "tle_line2": "2 43689  98.6647 217.5847 0001369 140.7528 219.3749 14.21509366393357"
    },
    "60543": {
      "name": "Arctic Weather Satellite",
      "tle_line1": "1 60543U 24149CD  26157.47450765  .00001069  00000+0  11702-3 0  9996",
      "tle_line2": "2 60543  97.6801 228.2460 0003346 124.4206 235.7328 14.89813761 97701"
    }
  }
}